[
    {
        "Altitude(m)": 562976.361916815,
        "Argument of Periapsis(deg)": 0.013245982221427002,
        "Eccentricity": 0.0,
        "Inclination(deg)": 53.0,
        "Latitude(deg)": -31.231875342733886,
        "Longitude(deg)": -24.54756758833374,
        "Mean Anomaly(deg)": -139.81681426484482,
        "RAAN(deg)": 229.98028673705602,
        "Satellite Name": "Starlink Shell 1 1024",
        "Satellite Number": 1024,
        "Semi-Major Axis(m)": 6931778.249405717,
        "Time(s)": 380
    },
    {
        "Altitude(m)": 563151.6698937719,
        "Argument of Periapsis(deg)": 0.013594560700938237,
        "Eccentricity": 0.0,
        "Inclination(deg)": 53.0,
        "Latitude(deg)": -31.677677415966574,
        "Longitude(deg)": -24.07324791249911,
        "Mean Anomaly(deg)": -139.18998306128813,
        "RAAN(deg)": 229.97976796697859,
        "Satellite Name": "Starlink Shell 1 1024",
        "Satellite Number": 1024,
        "Semi-Major Axis(m)": 6931778.249405717,
        "Time(s)": 390
    },
    {
        "Altitude(m)": 563326.894255731,
        "Argument of Periapsis(deg)": 0.013943139180449475,
        "Eccentricity": 0.0,
        "Inclination(deg)": 53.0,
        "Latitude(deg)": -32.121332131142985,
        "Longitude(deg)": -23.5940092063465,
        "Mean Anomaly(deg)": -138.56315185773138,
        "RAAN(deg)": 229.97924919690107,
        "Satellite Name": "Starlink Shell 1 1024",
        "Satellite Number": 1024,
        "Semi-Major Axis(m)": 6931778.249405717,
        "Time(s)": 400
    },
    {
        "Altitude(m)": 563501.9687551613,
        "Argument of Periapsis(deg)": 0.014291717659960712,
        "Eccentricity": 0.0,
        "Inclination(deg)": 53.0,
        "Latitude(deg)": -32.56278281104379,
        "Longitude(deg)": -23.109741642301074,
        "Mean Anomaly(deg)": -137.9363206541747,
        "RAAN(deg)": 229.97873042682363,
        "Satellite Name": "Starlink Shell 1 1024",
        "Satellite Number": 1024,
        "Semi-Major Axis(m)": 6931778.249405717,
        "Time(s)": 410
    },
    {
        "Altitude(m)": 563676.827065271,
        "Argument of Periapsis(deg)": 0.014640296139471948,
        "Eccentricity": 0.0,
        "Inclination(deg)": 53.0,
        "Latitude(deg)": -33.00197147778875,
        "Longitude(deg)": -22.6203347473038,
        "Mean Anomaly(deg)": -137.30948945061797,
        "RAAN(deg)": 229.97821165674614,
        "Satellite Name": "Starlink Shell 1 1024",
        "Satellite Number": 1024,
        "Semi-Major Axis(m)": 6931778.249405717,
        "Time(s)": 420
    },
    {
        "Altitude(m)": 563851.4028097065,
        "Argument of Periapsis(deg)": 0.014988874618983185,
        "Eccentricity": 0.0,
        "Inclination(deg)": 53.0,
        "Latitude(deg)": -33.43883882044135,
        "Longitude(deg)": -22.12567693908972,
        "Mean Anomaly(deg)": -136.68265824706128,
        "RAAN(deg)": 229.97769288666862,
        "Satellite Name": "Starlink Shell 1 1024",
        "Satellite Number": 1024,
        "Semi-Major Axis(m)": 6931778.249405717,
        "Time(s)": 430
    },
    {
        "Altitude(m)": 564025.6295922672,
        "Argument of Periapsis(deg)": 0.015337453098494424,
        "Eccentricity": 0.0,
        "Inclination(deg)": 53.0,
        "Latitude(deg)": -33.873324162577994,
        "Longitude(deg)": -21.625655068601787,
        "Mean Anomaly(deg)": -136.05582704350456,
        "RAAN(deg)": 229.97717411659121,
        "Satellite Name": "Starlink Shell 1 1024",
        "Satellite Number": 1024,
        "Semi-Major Axis(m)": 6931778.249405717,
        "Time(s)": 440
    },
    {
        "Altitude(m)": 564199.4410265943,
        "Argument of Periapsis(deg)": 0.01568603157800566,
        "Eccentricity": 0.0,
        "Inclination(deg)": 53.0,
        "Latitude(deg)": -34.305365429899865,
        "Longitude(deg)": -21.120155481842215,
        "Mean Anomaly(deg)": -135.42899583994785,
        "RAAN(deg)": 229.97665534651372,
        "Satellite Name": "Starlink Shell 1 1024",
        "Satellite Number": 1024,
        "Semi-Major Axis(m)": 6931778.249405717,
        "Time(s)": 450
    },
    {
        "Altitude(m)": 564372.7707658609,
        "Argument of Periapsis(deg)": 0.0160346100575169,
        "Eccentricity": 0.0,
        "Inclination(deg)": 53.0,
        "Latitude(deg)": -34.734899117965625,
        "Longitude(deg)": -20.60906357586405,
        "Mean Anomaly(deg)": -134.8021646363911,
        "RAAN(deg)": 229.97613657643623,
        "Satellite Name": "Starlink Shell 1 1024",
        "Satellite Number": 1024,
        "Semi-Major Axis(m)": 6931778.249405717,
        "Time(s)": 460
    },
    {
        "Altitude(m)": 564545.5525324299,
        "Argument of Periapsis(deg)": 0.016383188537028134,
        "Eccentricity": 0.0,
        "Inclination(deg)": 53.0,
        "Latitude(deg)": -35.16186026013935,
        "Longitude(deg)": -20.092263362247152,
        "Mean Anomaly(deg)": -134.1753334328344,
        "RAAN(deg)": 229.9756178063588,
        "Satellite Name": "Starlink Shell 1 1024",
        "Satellite Number": 1024,
        "Semi-Major Axis(m)": 6931778.249405717,
        "Time(s)": 470
    },
    {
        "Altitude(m)": 564717.7201474672,
        "Argument of Periapsis(deg)": 0.01673176701653937,
        "Eccentricity": 0.0,
        "Inclination(deg)": 53.0,
        "Latitude(deg)": -35.58618239585624,
        "Longitude(deg)": -19.569638551421125,
        "Mean Anomaly(deg)": -133.54850222927772,
        "RAAN(deg)": 229.9750990362813,
        "Satellite Name": "Starlink Shell 1 1024",
        "Satellite Number": 1024,
        "Semi-Major Axis(m)": 6931778.249405717,
        "Time(s)": 480
    },
    {
        "Altitude(m)": 564889.2075604779,
        "Argument of Periapsis(deg)": 0.017080345496050607,
        "Eccentricity": 0.0,
        "Inclination(deg)": 53.0,
        "Latitude(deg)": -36.00779753931242,
        "Longitude(deg)": -19.041072132593907,
        "Mean Anomaly(deg)": -132.92167102572094,
        "RAAN(deg)": 229.97458026620382,
        "Satellite Name": "Starlink Shell 1 1024",
        "Satellite Number": 1024,
        "Semi-Major Axis(m)": 6931778.249405717,
        "Time(s)": 490
    },
    {
        "Altitude(m)": 565059.948878811,
        "Argument of Periapsis(deg)": 0.017428923975561842,
        "Eccentricity": 0.0,
        "Inclination(deg)": 53.0,
        "Latitude(deg)": -36.426636148700226,
        "Longitude(deg)": -18.506445962687316,
        "Mean Anomaly(deg)": -132.29483982216428,
        "RAAN(deg)": 229.97406149612635,
        "Satellite Name": "Starlink Shell 1 1024",
        "Satellite Number": 1024,
        "Semi-Major Axis(m)": 6931778.249405717,
        "Time(s)": 500
    },
    {
        "Altitude(m)": 565229.878397027,
        "Argument of Periapsis(deg)": 0.01777750245507308,
        "Eccentricity": 0.0,
        "Inclination(deg)": 53.0,
        "Latitude(deg)": -36.842627096125206,
        "Longitude(deg)": -17.965641877693265,
        "Mean Anomaly(deg)": -131.66800861860753,
        "RAAN(deg)": 229.97354272604886,
        "Satellite Name": "Starlink Shell 1 1024",
        "Satellite Number": 1024,
        "Semi-Major Axis(m)": 6931778.249405717,
        "Time(s)": 510
    },
    {
        "Altitude(m)": 565398.9306262158,
        "Argument of Periapsis(deg)": 0.018126080934584315,
        "Eccentricity": 0.0,
        "Inclination(deg)": 53.0,
        "Latitude(deg)": -37.25569763833925,
        "Longitude(deg)": -17.41854130126227,
        "Mean Anomaly(deg)": -131.04117741505087,
        "RAAN(deg)": 229.9730239559714,
        "Satellite Name": "Starlink Shell 1 1024",
        "Satellite Number": 1024,
        "Semi-Major Axis(m)": 6931778.249405717,
        "Time(s)": 520
    },
    {
        "Altitude(m)": 565567.0403231648,
        "Argument of Periapsis(deg)": 0.018474659414095554,
        "Eccentricity": 0.0,
        "Inclination(deg)": 53.0,
        "Latitude(deg)": -37.66577338844947,
        "Longitude(deg)": -16.865024863968156,
        "Mean Anomaly(deg)": -130.41434621149412,
        "RAAN(deg)": 229.97250518589397,
        "Satellite Name": "Starlink Shell 1 1024",
        "Satellite Number": 1024,
        "Semi-Major Axis(m)": 6931778.249405717,
        "Time(s)": 530
    },
    {
        "Altitude(m)": 565734.1425194187,
        "Argument of Periapsis(deg)": 0.018823237893606792,
        "Eccentricity": 0.0,
        "Inclination(deg)": 53.0,
        "Latitude(deg)": -38.072778288770344,
        "Longitude(deg)": -16.304973546706997,
        "Mean Anomaly(deg)": -129.78751500793746,
        "RAAN(deg)": 229.97198641581647,
        "Satellite Name": "Starlink Shell 1 1024",
        "Satellite Number": 1024,
        "Semi-Major Axis(m)": 6931778.249405717,
        "Time(s)": 540
    },
    {
        "Altitude(m)": 565900.1725502056,
        "Argument of Periapsis(deg)": 0.019171816373118027,
        "Eccentricity": 0.0,
        "Inclination(deg)": 53.0,
        "Latitude(deg)": -38.47663458499555,
        "Longitude(deg)": -15.738268323071086,
        "Mean Anomaly(deg)": -129.16068380438068,
        "RAAN(deg)": 229.97146764573895,
        "Satellite Name": "Starlink Shell 1 1024",
        "Satellite Number": 1024,
        "Semi-Major Axis(m)": 6931778.249405717,
        "Time(s)": 550
    },
    {
        "Altitude(m)": 566065.0660831874,
        "Argument of Periapsis(deg)": 0.019520394852629266,
        "Eccentricity": 0.0,
        "Inclination(deg)": 53.0,
        "Latitude(deg)": -38.87726280188379,
        "Longitude(deg)": -15.164789814174048,
        "Mean Anomaly(deg)": -128.53385260082393,
        "RAAN(deg)": 229.97094887566155,
        "Satellite Name": "Starlink Shell 1 1024",
        "Satellite Number": 1024,
        "Semi-Major Axis(m)": 6931778.249405717,
        "Time(s)": 560
    }
]